     2              NAVIGATION DATA                         RINEX VERSION / TYPE
CCRINEXN V1.6.0 UX  CDDIS               28-SEP-06 02:51     PGM / RUN BY / DATE 
IGS BROADCAST EPHEMERIS FILE                                COMMENT             
    0.8382E-08  0.1490E-07 -0.5960E-07 -0.5960E-07          ION ALPHA           
    0.8397E+05  0.1638E+05 -0.1311E+06 -0.6554E+05          ION BETA            
    0.931322574616E-09 0.000000000000E+00   503808     1394 DELTA-UTC: A0,A1,T,W
    14                                                      LEAP SECONDS        
                                                            END OF HEADER       
16 06  9 27 12  0  0.0 0.768708996475E-04 0.341060513165E-11 0.000000000000E+00
    0.121000000000E+03-0.241875000000E+02 0.471983945740E-08-0.642556630206E+00
   -0.127963721752E-05 0.345554063097E-02 0.609271228313E-05 0.515378861046E+04
    0.302400000000E+06-0.428408384323E-07 0.237444632428E+01-0.260770320892E-07
    0.962627664849E+00 0.264718750000E+03-0.758285068771E+00-0.812712424163E-08
   -0.115361948145E-09 0.100000000000E+01 0.139400000000E+04 0.000000000000E+00
    0.200000000000E+01 0.000000000000E+00-0.977888703346E-08 0.121000000000E+03
    0.295218000000E+06 0.400000000000E+01 0.000000000000E+00 0.000000000000E+00
17 06  9 27 12  0  0.0 0.945567153394E-04-0.113686837722E-11 0.000000000000E+00
    0.870000000000E+02 0.250937500000E+02 0.428803570429E-08-0.161301294609E+01
    0.137649476528E-05 0.217798817903E-02 0.102184712887E-04 0.515373780441E+04
    0.302400000000E+06-0.223517417908E-07-0.287007435734E+01-0.447034835815E-07
    0.960440868572E+00 0.183125000000E+03 0.307946877528E+01-0.773889397010E-08
   -0.271439870580E-09 0.100000000000E+01 0.139400000000E+04 0.000000000000E+00
    0.280000000000E+01 0.000000000000E+00-0.931322574616E-08 0.343000000000E+03
    0.295248000000E+06 0.400000000000E+01 0.000000000000E+00 0.000000000000E+00
18 06  9 27 12  0  0.0-0.249846838415E-03-0.795807864051E-12 0.000000000000E+00
    0.840000000000E+02-0.975000000000E+01 0.489948979770E-08-0.572022791342E+00
   -0.419095158577E-06 0.772283889819E-02 0.255368649960E-05 0.515371328163E+04
    0.302400000000E+06 0.856816768646E-07-0.735004007593E+00 0.145286321640E-06
    0.956355605467E+00 0.326625000000E+03-0.263114659603E+01-0.849785396973E-08
   -0.796461747257E-10 0.100000000000E+01 0.139400000000E+04 0.000000000000E+00
    0.200000000000E+01 0.000000000000E+00-0.102445483208E-07 0.340000000000E+03
    0.295218000000E+06 0.400000000000E+01 0.000000000000E+00 0.000000000000E+00
19 06  9 27 12  0  0.0 0.192550942302E-04 0.329691829393E-11 0.000000000000E+00
    0.197000000000E+03 0.305625000000E+02 0.435518154873E-08-0.194582265736E+01
    0.170990824699E-05 0.357417948544E-02 0.101905316114E-04 0.515366237831E+04
    0.302400000000E+06-0.745058059692E-08-0.281106426358E+01 0.117346644402E-06
    0.958360555175E+00 0.183375000000E+03-0.112247139288E+01-0.784639819784E-08
   -0.236438424395E-09 0.100000000000E+01 0.139400000000E+04 0.000000000000E+00
    0.200000000000E+01 0.000000000000E+00-0.144354999065E-07 0.453000000000E+03
    0.295218000000E+06 0.400000000000E+01 0.000000000000E+00 0.000000000000E+00
20 06  9 27 12  0  0.0-0.223144888878E-04 0.227373675443E-12 0.000000000000E+00
    0.400000000000E+01-0.170000000000E+02 0.490663287778E-08-0.743854803875E+00
   -0.828877091408E-06 0.276281090919E-02 0.251084566116E-05 0.515367605782E+04
    0.302400000000E+06 0.111758708954E-07-0.788028225316E+00 0.931322574616E-08
    0.955846858150E+00 0.332343750000E+03 0.136148144918E+01-0.846856718084E-08
   -0.810748065905E-10 0.100000000000E+01 0.139400000000E+04 0.000000000000E+00
    0.200000000000E+01 0.000000000000E+00-0.651925802231E-08 0.400000000000E+01
    0.295218000000E+06 0.400000000000E+01 0.000000000000E+00 0.000000000000E+00
21 06  9 27 12  0  0.0 0.545517541468E-04 0.170530256582E-11 0.000000000000E+00
    0.201000000000E+03 0.980625000000E+02 0.492056210402E-08 0.703340005963E+00
    0.523403286934E-05 0.116591800470E-01 0.627152621746E-05 0.515369027519E+04
    0.302400000000E+06 0.782310962677E-07-0.178968885593E+01 0.258907675743E-06
    0.941714171272E+00 0.247031250000E+03-0.291587449687E+01-0.835713382245E-08
    0.102504269714E-09 0.100000000000E+01 0.139400000000E+04 0.000000000000E+00
    0.200000000000E+01 0.000000000000E+00-0.116415321827E-07 0.457000000000E+03
    0.295218000000E+06 0.400000000000E+01 0.000000000000E+00 0.000000000000E+00
22 06  9 27 12  0  0.0 0.137488823384E-03 0.272848410532E-11 0.000000000000E+00
    0.179000000000E+03-0.121250000000E+02 0.482412951579E-08-0.211584493051E+01
   -0.575557351112E-06 0.496961234603E-02 0.231154263020E-05 0.515368018722E+04
    0.302400000000E+06 0.707805156708E-07-0.727165996811E+00 0.763684511185E-07
    0.953914362385E+00 0.328718750000E+03-0.167490710969E+01-0.832320383771E-08
   -0.425017703693E-10 0.100000000000E+01 0.139400000000E+04 0.000000000000E+00
    0.200000000000E+01 0.000000000000E+00-0.181607902050E-07 0.179000000000E+03
    0.295218000000E+06 0.400000000000E+01 0.000000000000E+00 0.000000000000E+00
23 06  9 27 12  0  0.0 0.138182193041E-03 0.341060513165E-12 0.000000000000E+00
    0.177000000000E+03-0.728750000000E+02 0.423767643198E-08-0.294489758466E+01
   -0.369548797607E-05 0.482479447965E-02 0.851787626743E-05 0.515373503304E+04
    0.302400000000E+06-0.596046447754E-07 0.268060281215E+00 0.596046447754E-07
    0.969539197908E+00 0.221218750000E+03 0.252699509574E+01-0.781818254581E-08
   -0.714315488270E-12 0.100000000000E+01 0.139400000000E+04 0.000000000000E+00
    0.200000000000E+01 0.000000000000E+00-0.214204192162E-07 0.433000000000E+03
    0.302118000000E+06 0.400000000000E+01 0.000000000000E+00 0.000000000000E+00
24 06  9 27 12  0  0.0 0.393176451325E-04 0.306954461848E-11 0.000000000000E+00
    0.238000000000E+03 0.105750000000E+03 0.445304282337E-08 0.121704023555E+01
    0.541657209396E-05 0.884311611298E-02 0.576302409172E-05 0.515537583923E+04
    0.302400000000E+06 0.221654772759E-06-0.177414455551E+01-0.968575477600E-07
    0.958354802981E+00 0.262718750000E+03-0.835881549890E+00-0.809462274987E-08
    0.163578248169E-09 0.100000000000E+01 0.139400000000E+04 0.000000000000E+00
    0.280000000000E+01 0.000000000000E+00-0.931322574616E-09 0.100600000000E+04
    0.297108000000E+06 0.400000000000E+01 0.000000000000E+00 0.000000000000E+00
25 06  9 27 12  0  0.0 0.352863222361E-03 0.201225702767E-10 0.000000000000E+00
    0.360000000000E+02-0.151250000000E+02 0.459447709270E-08 0.128919652810E+01
   -0.106170773506E-05 0.126252203481E-01 0.809319317341E-05 0.515365054131E+04
    0.302400000000E+06 0.502914190292E-07 0.122237799645E+01-0.361353158951E-06
    0.955473623860E+00 0.221250000000E+03-0.132519298941E+01-0.805854995667E-08
    0.358943522867E-09 0.100000000000E+01 0.139400000000E+04 0.000000000000E+00
    0.280000000000E+01 0.000000000000E+00-0.745058059692E-08 0.360000000000E+02
    0.299958000000E+06 0.400000000000E+01 0.000000000000E+00 0.000000000000E+00
26 06  9 27 12  0  0.0-0.270655378699E-03-0.150066625793E-10 0.000000000000E+00
    0.165000000000E+03-0.948125000000E+02 0.363836583826E-08 0.246461619569E+01
   -0.504776835442E-05 0.174756742781E-01 0.826828181744E-05 0.515373098564E+04
    0.302400000000E+06-0.987201929092E-07 0.297980374776E+00-0.305473804474E-06
    0.991314288791E+00 0.236437500000E+03 0.818151033972E+00-0.743245244862E-08
   -0.321441960777E-10 0.100000000000E+01 0.139400000000E+04 0.000000000000E+00
    0.200000000000E+01 0.000000000000E+00-0.651925802231E-08 0.165000000000E+03
    0.295218000000E+06 0.400000000000E+01 0.000000000000E+00 0.000000000000E+00
28 06  9 27 12  0  0.0 0.178031623363E-04-0.795807864051E-12 0.000000000000E+00
    0.128000000000E+03-0.244062500000E+02 0.474126871097E-08-0.136236711441E+01
   -0.126846134663E-05 0.116741348756E-01 0.610575079918E-05 0.515366986466E+04
    0.302400000000E+06 0.329688191414E-06 0.238387887920E+01 0.633299350738E-07
    0.960712330576E+00 0.261218750000E+03-0.224244443474E+01-0.800247601518E-08
   -0.201079805584E-09 0.100000000000E+01 0.139400000000E+04 0.000000000000E+00
    0.280000000000E+01 0.000000000000E+00-0.102445483208E-07 0.384000000000E+03
    0.295218000000E+06 0.400000000000E+01 0.000000000000E+00 0.000000000000E+00
30 06  9 27 12  0  0.0 0.113863497973E-04 0.125055521494E-11 0.000000000000E+00
    0.990000000000E+02-0.180312500000E+02 0.522986070183E-08-0.108293457180E+01
   -0.847503542900E-06 0.941657519434E-02 0.583566725254E-05 0.515367955971E+04
    0.302400000000E+06-0.465661287308E-07 0.232753634780E+01 0.199303030968E-06
    0.945001646632E+00 0.257781250000E+03 0.131375663757E+01-0.839570685775E-08
   -0.103218585183E-09 0.100000000000E+01 0.139400000000E+04 0.000000000000E+00
    0.200000000000E+01 0.000000000000E+00-0.791624188423E-08 0.990000000000E+02
    0.298968000000E+06 0.400000000000E+01 0.000000000000E+00 0.000000000000E+00
23 06  9 27 13 59 28.0 0.138183590025E-03 0.341060513165E-12 0.000000000000E+00
    0.224000000000E+03-0.705312500000E+02 0.420374668408E-08-0.189927670610E+01
   -0.364892184734E-05 0.482406863011E-02 0.833533704281E-05 0.515373692513E+04
    0.309568000000E+06-0.121071934700E-06 0.268003947166E+00-0.167638063431E-07
    0.969538918491E+00 0.228281250000E+03 0.252684778720E+01-0.789247156519E-08
    0.182150440564E-10 0.100000000000E+01 0.139400000000E+04 0.000000000000E+00
    0.200000000000E+01 0.000000000000E+00-0.214204192162E-07 0.224000000000E+03
    0.307146000000E+06 0.400000000000E+01 0.000000000000E+00 0.000000000000E+00
